RANGE-A                 
1 43773U 18099R   26068.70590171  .00005536  00000+0  32166-3 0  9992
2 43773  97.4107 114.1927 0009674 340.4473  19.6386 15.12458640397457
STARLINK-4050           
1 53274U 22086AJ  26068.64063254 -.00000858  00000+0 -35815-4 0  9999
2 53274  53.2179 184.3421 0001436  84.6806 275.4350 15.08841932201199
